{
  "norad_id": 46818,
  "name": "CE-SAT IIB",
  "history": [
    {
      "epoch": "2026-03-28T05:57:43.506144Z",
      "apogee_km": 329.20093185848145,
      "perigee_km": 323.64955432120405,
      "latitude_deg": 2.642709310169215e-05,
      "longitude_deg": -109.89226872856537,
      "height_km": 330.81154103499426,
      "semi_major_axis_km": 6704.562243089843,
      "eccentricity": 0.000414,
      "inclination_deg": 97.2097,
      "raan_deg": 165.2106,
      "arg_perigee_deg": 115.9283,
      "mean_anomaly_deg": 244.2413,
      "mean_motion_rev_day": 15.81419616
    }
  ]
}